{"type": "FeatureCollection", "features": [ {"type": "Feature", "properties": {"norad_id": 32315, "name": "FENGYUN 1C DEB", "group": "fengyun-1c-debris", "lat": -66.58418132171994, "lon": 157.64044438708936, "alt_km": 1189.7185818509915, "timestamp": "2025-12-14T03:55:53.073489+00:00", "meta": {"OBJECT_NAME": "FENGYUN 1C DEB", "OBJECT_ID": "1999-025CXG", "EPOCH": "2025-11-20T16:04:27.676128", "MEAN_MOTION": 13.66155502, "ECCENTRICITY": 0.02289149, "INCLINATION": 100.8052, "RA_OF_ASC_NODE": 105.2905, "ARG_OF_PERICENTER": 168.6, "MEAN_ANOMALY": 192.0449, "EPHEMERIS_TYPE": 0, "CLASSIFICATION_TYPE": "U", "NORAD_CAT_ID": 32315, "ELEMENT_SET_NO": 999, "REV_AT_EPOCH": 60787, "BSTAR": 0.00024184327, "MEAN_MOTION_DOT": 1.85e-06, "MEAN_MOTION_DDOT": 0}, "tle": {"line1": "1 32315U 99025CXG 25324.66976477  .00000185  00000+0  24184-3 0  9992", "line2": "2 32315 100.8052 105.2905 0228914 168.6000 192.0449 13.66155502607872"}}, "geometry": {"type": "Point", "coordinates": [157.64044438708936, -66.58418132171994]}}, {"type": "Feature", "properties": {"norad_id": 32316, "name": "FENGYUN 1C DEB", "group": "fengyun-1c-debris", "lat": -64.79499033890131, "lon": 35.72507439881741, "alt_km": 710.6605890154469, "timestamp": "2025-12-14T03:55:53.073514+00:00", "meta": {"OBJECT_NAME": "FENGYUN 1C DEB", "OBJECT_ID": "1999-025CXH", "EPOCH": "2025-12-12T19:58:15.282048", "MEAN_MOTION": 14.51866816, "ECCENTRICITY": 0.00264395, "INCLINATION": 99.5296, "RA_OF_ASC_NODE": 13.3061, "ARG_OF_PERICENTER": 329.1555, "MEAN_ANOMALY": 208.0124, "EPHEMERIS_TYPE": 0, "CLASSIFICATION_TYPE": "U", "NORAD_CAT_ID": 32316, "ELEMENT_SET_NO": 999, "REV_AT_EPOCH": 95778, "BSTAR": 0.0024996142, "MEAN_MOTION_DOT": 0.00010073, "MEAN_MOTION_DDOT": 0}, "tle": {"line1": "1 32316U 99025CXH 25346.83212132  .00010073  00000+0  24996-2 0  9994", "line2": "2 32316  99.5296  13.3061 0026439 329.1555 208.0124 14.51866816957784"}}, "geometry": {"type": "Point", "coordinates": [35.72507439881741, -64.79499033890131]}}, {"type": "Feature", "properties": {"norad_id": 32320, "name": "FENGYUN 1C DEB", "group": "fengyun-1c-debris", "lat": 53.05875256269589, "lon": 39.63650305808467, "alt_km": 760.1823143812271, "timestamp": "2025-12-14T03:55:53.073527+00:00", "meta": {"OBJECT_NAME": "FENGYUN 1C DEB", "OBJECT_ID": "1999-025CXM", "EPOCH": "2025-12-12T21:15:25.231680", "MEAN_MOTION": 14.36142052, "ECCENTRICITY": 0.00562414, "INCLINATION": 100.3739, "RA_OF_ASC_NODE": 204.0011, "ARG_OF_PERICENTER": 47.422, "MEAN_ANOMALY": 313.1686, "EPHEMERIS_TYPE": 0, "CLASSIFICATION_TYPE": "U", "NORAD_CAT_ID": 32320, "ELEMENT_SET_NO": 999, "REV_AT_EPOCH": 62175, "BSTAR": 0.0012390889, "MEAN_MOTION_DOT": 3.618e-05, "MEAN_MOTION_DDOT": 0}, "tle": {"line1": "1 32320U 99025CXM 25346.88570870  .00003618  00000+0  12391-2 0  9993", "line2": "2 32320 100.3739 204.0011 0056241  47.4220 313.1686 14.36142052621757"}}, "geometry": {"type": "Point", "coordinates": [39.63650305808467, 53.05875256269589]}}, {"type": "Feature", "properties": {"norad_id": 32322, "name": "FENGYUN 1C DEB", "group": "fengyun-1c-debris", "lat": 47.22087285237744, "lon": -139.14003048768276, "alt_km": 901.9870442515539, "timestamp": "2025-12-14T03:55:53.073537+00:00", "meta": {"OBJECT_NAME": "FENGYUN 1C DEB", "OBJECT_ID": "1999-025CXP", "EPOCH": "2025-12-10T11:30:19.459296", "MEAN_MOTION": 13.34129815, "ECCENTRICITY": 0.04190414, "INCLINATION": 98.3701, "RA_OF_ASC_NODE": 226.9905, "ARG_OF_PERICENTER": 103.3403, "MEAN_ANOMALY": 261.4794, "EPHEMERIS_TYPE": 0, "CLASSIFICATION_TYPE": "U", "NORAD_CAT_ID": 32322, "ELEMENT_SET_NO": 999, "REV_AT_EPOCH": 60349, "BSTAR": 0.0015395433, "MEAN_MOTION_DOT": 1.229e-05, "MEAN_MOTION_DDOT": 0}, "tle": {"line1": "1 32322U 99025CXP 25344.47939189  .00001229  00000+0  15395-2 0  9993", "line2": "2 32322  98.3701 226.9905 0419041 103.3403 261.4794 13.34129815603490"}}, "geometry": {"type": "Point", "coordinates": [-139.14003048768276, 47.22087285237744]}}, {"type": "Feature", "properties": {"norad_id": 32323, "name": "FENGYUN 1C DEB", "group": "fengyun-1c-debris", "lat": -30.34443345068802, "lon": -53.80371295436825, "alt_km": 798.8337553405281, "timestamp": "2025-12-14T03:55:53.073547+00:00", "meta": {"OBJECT_NAME": "FENGYUN 1C DEB", "OBJECT_ID": "1999-025CXQ", "EPOCH": "2025-12-11T19:53:55.961952", "MEAN_MOTION": 13.96527739, "ECCENTRICITY": 0.0155374, "INCLINATION": 98.5708, "RA_OF_ASC_NODE": 129.0851, "ARG_OF_PERICENTER": 212.3019, "MEAN_ANOMALY": 146.8558, "EPHEMERIS_TYPE": 0, "CLASSIFICATION_TYPE": "U", "NORAD_CAT_ID": 32323, "ELEMENT_SET_NO": 999, "REV_AT_EPOCH": 60257, "BSTAR": 0.0054384, "MEAN_MOTION_DOT": 8.293e-05, "MEAN_MOTION_DDOT": 0}, "tle": {"line1": "1 32323U 99025CXQ 25345.82911993  .00008293  00000+0  54384-2 0  9996", "line2": "2 32323  98.5708 129.0851 0155374 212.3019 146.8558 13.96527739602570"}}, "geometry": {"type": "Point", "coordinates": [-53.80371295436825, -30.34443345068802]}}, {"type": "Feature", "properties": {"norad_id": 32324, "name": "FENGYUN 1C DEB", "group": "fengyun-1c-debris", "lat": 78.90393688434672, "lon": -31.03267921816063, "alt_km": 845.6656193117533, "timestamp": "2025-12-14T03:55:53.073557+00:00", "meta": {"OBJECT_NAME": "FENGYUN 1C DEB", "OBJECT_ID": "1999-025CXR", "EPOCH": "2025-12-12T12:17:19.986432", "MEAN_MOTION": 14.09146204, "ECCENTRICITY": 0.00499976, "INCLINATION": 99.5336, "RA_OF_ASC_NODE": 88.2532, "ARG_OF_PERICENTER": 24.7142, "MEAN_ANOMALY": 335.6406, "EPHEMERIS_TYPE": 0, "CLASSIFICATION_TYPE": "U", "NORAD_CAT_ID": 32324, "ELEMENT_SET_NO": 999, "REV_AT_EPOCH": 63995, "BSTAR": 0.00074752979, "MEAN_MOTION_DOT": 1.264e-05, "MEAN_MOTION_DDOT": 0}, "tle": {"line1": "1 32324U 99025CXR 25346.51203688  .00001264  00000+0  74753-3 0  9993", "line2": "2 32324  99.5336  88.2532 0049997  24.7142 335.6406 14.09146204639957"}}, "geometry": {"type": "Point", "coordinates": [-31.03267921816063, 78.90393688434672]}}, {"type": "Feature", "properties": {"norad_id": 32326, "name": "FENGYUN 1C DEB", "group": "fengyun-1c-debris", "lat": 39.67698106438494, "lon": 104.49636817793075, "alt_km": 714.3452906987659, "timestamp": "2025-12-14T03:55:53.073568+00:00", "meta": {"OBJECT_NAME": "FENGYUN 1C DEB", "OBJECT_ID": "1999-025CXT", "EPOCH": "2025-12-13T00:57:43.680960", "MEAN_MOTION": 13.69281784, "ECCENTRICITY": 0.03865638, "INCLINATION": 98.4907, "RA_OF_ASC_NODE": 276.3849, "ARG_OF_PERICENTER": 138.5694, "MEAN_ANOMALY": 224.5462, "EPHEMERIS_TYPE": 0, "CLASSIFICATION_TYPE": "U", "NORAD_CAT_ID": 32326, "ELEMENT_SET_NO": 999, "REV_AT_EPOCH": 63186, "BSTAR": 0.0005592068, "MEAN_MOTION_DOT": 7.87e-06, "MEAN_MOTION_DDOT": 0}, "tle": {"line1": "1 32326U 99025CXT 25347.04008890  .00000787  00000+0  55921-3 0  9997", "line2": "2 32326  98.4907 276.3849 0386563 138.5694 224.5462 13.69281784631869"}}, "geometry": {"type": "Point", "coordinates": [104.49636817793075, 39.67698106438494]}}, {"type": "Feature", "properties": {"norad_id": 32332, "name": "FENGYUN 1C DEB", "group": "fengyun-1c-debris", "lat": 17.263248518896095, "lon": 39.3392646894766, "alt_km": 823.5408227415583, "timestamp": "2025-12-14T03:55:53.073578+00:00", "meta": {"OBJECT_NAME": "FENGYUN 1C DEB", "OBJECT_ID": "1999-025CXZ", "EPOCH": "2025-12-12T20:54:49.849056", "MEAN_MOTION": 13.97135848, "ECCENTRICITY": 0.02850061, "INCLINATION": 99.1327, "RA_OF_ASC_NODE": 40.919, "ARG_OF_PERICENTER": 312.4612, "MEAN_ANOMALY": 45.2771, "EPHEMERIS_TYPE": 0, "CLASSIFICATION_TYPE": "U", "NORAD_CAT_ID": 32332, "ELEMENT_SET_NO": 999, "REV_AT_EPOCH": 93038, "BSTAR": 0.0022136222, "MEAN_MOTION_DOT": 4.32e-05, "MEAN_MOTION_DDOT": 0}, "tle": {"line1": "1 32332U 99025CXZ 25346.87141029  .00004320  00000+0  22136-2 0  9994", "line2": "2 32332  99.1327  40.9190 0285006 312.4612  45.2771 13.97135848930387"}}, "geometry": {"type": "Point", "coordinates": [39.3392646894766, 17.263248518896095]}}, {"type": "Feature", "properties": {"norad_id": 32334, "name": "FENGYUN 1C DEB", "group": "fengyun-1c-debris", "lat": -48.83418366859277, "lon": -148.1509488556671, "alt_km": 862.1520248002707, "timestamp": "2025-12-14T03:55:53.073588+00:00", "meta": {"OBJECT_NAME": "FENGYUN 1C DEB", "OBJECT_ID": "1999-025CYB", "EPOCH": "2025-12-12T14:51:20.168352", "MEAN_MOTION": 14.01642378, "ECCENTRICITY": 0.00663896, "INCLINATION": 99.2527, "RA_OF_ASC_NODE": 41.0275, "ARG_OF_PERICENTER": 281.4097, "MEAN_ANOMALY": 77.9615, "EPHEMERIS_TYPE": 0, "CLASSIFICATION_TYPE": "U", "NORAD_CAT_ID": 32334, "ELEMENT_SET_NO": 999, "REV_AT_EPOCH": 93938, "BSTAR": 0.00047702652, "MEAN_MOTION_DOT": 6.9e-06, "MEAN_MOTION_DDOT": 0}, "tle": {"line1": "1 32334U 99025CYB 25346.61898343  .00000690  00000+0  47703-3 0  9990", "line2": "2 32334  99.2527  41.0275 0066389 281.4097  77.9615 14.01642378939386"}}, "geometry": {"type": "Point", "coordinates": [-148.1509488556671, -48.83418366859277]}}, {"type": "Feature", "properties": {"norad_id": 32340, "name": "FENGYUN 1C DEB", "group": "fengyun-1c-debris", "lat": 24.84215569942788, "lon": 178.3176764475406, "alt_km": 662.3138037289482, "timestamp": "2025-12-14T03:55:53.073621+00:00", "meta": {"OBJECT_NAME": "FENGYUN 1C DEB", "OBJECT_ID": "1999-025CYH", "EPOCH": "2025-12-10T17:48:09.538848", "MEAN_MOTION": 14.74494196, "ECCENTRICITY": 0.00340453, "INCLINATION": 98.9824, "RA_OF_ASC_NODE": 350.327, "ARG_OF_PERICENTER": 300.429, "MEAN_ANOMALY": 59.3553, "EPHEMERIS_TYPE": 0, "CLASSIFICATION_TYPE": "U", "NORAD_CAT_ID": 32340, "ELEMENT_SET_NO": 999, "REV_AT_EPOCH": 97167, "BSTAR": 0.0040015959, "MEAN_MOTION_DOT": 0.0002689, "MEAN_MOTION_DDOT": 0}, "tle": {"line1": "1 32340U 99025CYH 25344.74177707  .00026890  00000+0  40016-2 0  9992", "line2": "2 32340  98.9824 350.3270 0034045 300.4290  59.3553 14.74494196971677"}}, "geometry": {"type": "Point", "coordinates": [178.3176764475406, 24.84215569942788]}}]}